[{"OBJECT_NAME":"STARLINK-5407","OBJECT_ID":"2022-177AQ","EPOCH":"2026-03-09T22:00:01.999584","MEAN_MOTION":15.11184678,"ECCENTRICITY":0.00016124,"INCLINATION":42.9996,"RA_OF_ASC_NODE":118.9712,"ARG_OF_PERICENTER":237.2667,"MEAN_ANOMALY":16.9578,"EPHEMERIS_TYPE":0,"CLASSIFICATION_TYPE":"U","NORAD_CAT_ID":54858,"ELEMENT_SET_NO":999,"REV_AT_EPOCH":557,"BSTAR":0.0032943061,"MEAN_MOTION_DOT":0.00056497,"MEAN_MOTION_DDOT":0},{"OBJECT_NAME":"CZ-4 DEB","OBJECT_ID":"1990-081BD","EPOCH":"2026-03-09T22:42:42.703776","MEAN_MOTION":15.11873294,"ECCENTRICITY":0.00034139,"INCLINATION":98.0936,"RA_OF_ASC_NODE":110.4779,"ARG_OF_PERICENTER":147.9161,"MEAN_ANOMALY":298.2423,"EPHEMERIS_TYPE":0,"CLASSIFICATION_TYPE":"U","NORAD_CAT_ID":20893,"ELEMENT_SET_NO":999,"REV_AT_EPOCH":85212,"BSTAR":0.0037838154,"MEAN_MOTION_DOT":0.00065217,"MEAN_MOTION_DDOT":0}]
